0 COSMOS 2251 DEB
1 37496U 93036BLZ 13281.89920237  .00002351  00000-0  64336-3 0  1645
2 37496 073.9751 119.0578 0164420 082.3604 279.8963 14.40040993210397
0 COSMOS 2251 DEB
1 37496U 93036BLZ 13283.84430763  .00002427  00000-0  66468-3 0  1655
2 37496 073.9716 115.4248 0163670 078.3904 283.5888 14.40051911210677
0 COSMOS 2251 DEB
1 37496U 93036BLZ 13285.16422128  .00002570  00000-0  70213-3 0  1661
2 37496 073.9704 112.9842 0164582 075.0987 286.8284 14.40061300210864
0 COSMOS 2251 DEB
1 37496U 93036BLZ 13287.17881954  .00002701  00000-0  73744-3 0  1679
2 37496 073.9698 109.2402 0164396 071.1032 290.8298 14.40075071211151
0 COSMOS 2251 DEB
1 37496U 93036BLZ 13290.16593505  .00002795  00000-0  76369-3 0  1684
2 37496 073.9708 103.6950 0163731 065.1281 296.7434 14.40094377211584
0 COSMOS 2251 DEB
1 37496U 93036BLZ 13292.80566298  .00002863  00000-0  78299-3 0  1697
2 37496 073.9706 098.7973 0162797 058.8201 302.8990 14.40111685211963
0 COSMOS 2251 DEB
1 37496U 93036BLZ 13294.12551317  .00002896  00000-0  79183-3 0  1701
2 37496 073.9714 096.3467 0162767 056.7243 304.9472 14.40120503212153
